NORAD_CAT_ID,OBJECT_NAME,OBJECT_TYPE,EPOCH,MEAN_MOTION,ECCENTRICITY,INCLINATION,RA_OF_ASC_NODE,ARG_OF_PERICENTER,MEAN_ANOMALY,BSTAR,MEAN_MOTION_DOT,MEAN_MOTION_DDOT,TLE_LINE0,TLE_LINE1,TLE_LINE2,SEMIMAJOR_AXIS,PERIOD,APOGEE,PERIGEE,DECAYED
51985.0,STARLINK-3651,PAYLOAD,2022-05-04 14:00:01,15.27107043,0.0001616,53.2175,227.7931,49.4992,244.8137,-0.027592,-0.00687756,0.0,0 STARLINK-3651,1 51985U 22025AF  22124.58334491 -.00687756  00000-0 -27592-1 0  9994,2 51985  53.2175 227.7931 0001616  49.4992 244.8137 15.27107043  3669,6862.603,94.296,485.577,483.359,0.0
51985.0,STARLINK-3651,PAYLOAD,2022-05-04 20:00:01,15.26742189,0.0001462,53.2172,226.6365,62.2346,167.1333,-0.027992,-0.00689817,0.0,0 STARLINK-3651,1 51985U 22025AF  22124.83335648 -.00689817  00000-0 -27992-1 0  9991,2 51985  53.2172 226.6365 0001462  62.2346 167.1333 15.26742189 10051,6863.696,94.318,486.564,484.557,0.0
51985.0,STARLINK-3651,PAYLOAD,2022-05-04 22:00:01,15.26620273,0.0001308,53.2173,226.2506,64.2027,263.423,-0.028126,-0.00690476,0.0,0 STARLINK-3651,1 51985U 22025AF  22124.91668981 -.00690476  00000-0 -28126-1 0  9992,2 51985  53.2173 226.2506 0001308  64.2027 263.4230 15.26620273  3666,6864.061,94.326,486.824,485.029,0.0
51985.0,STARLINK-3651,PAYLOAD,2022-05-05 14:00:01,15.25644242,0.0001564,53.2175,223.1718,45.5375,346.7616,-0.028997,-0.00691054,0.0,0 STARLINK-3651,1 51985U 22025AF  22125.58334491 -.00691054  00000-0 -28997-1 0  9991,2 51985  53.2175 223.1718 0001564  45.5375 346.7616 15.25644242  3665,6866.989000000001,94.386,489.92800000000005,487.78,0.0
51985.0,STARLINK-3651,PAYLOAD,2022-05-05 22:00:00,15.25154352,0.0001303,53.2174,221.6327,60.3142,3.475,-0.029299,-0.0068818,0.0,0 STARLINK-3651,1 51985U 22025AF  22125.91667824 -.00688180  00000-0 -29299-1 0  9999,2 51985  53.2174 221.6327 0001303  60.3142   3.4750 15.25154352  3654,6868.459,94.417,491.219,489.429,0.0
51985.0,STARLINK-3651,PAYLOAD,2022-05-06 04:00:00,15.24785511,0.000128,53.2173,220.4788,61.8003,295.2223,-0.029434,-0.00684029,0.0,0 STARLINK-3651,1 51985U 22025AF  22126.16667824 -.00684029  00000-0 -29434-1 0  9996,2 51985  53.2173 220.4788 0001280  61.8003 295.2223 15.24785511 10253,6869.566999999999,94.44,492.311,490.552,0.0
51985.0,STARLINK-3651,PAYLOAD,2022-05-06 14:00:01,15.24178743,0.0001717,53.2175,218.5608,45.1648,79.8411,-0.030245,-0.00697537,0.0,0 STARLINK-3651,1 51985U 22025AF  22126.58334491 -.00697537  00000-0 -30245-1 0  9993,2 51985  53.2175 218.5608 0001717  45.1648  79.8411 15.24178743  3675,6871.39,94.477,494.434,492.075,0.0
51985.0,STARLINK-3651,PAYLOAD,2022-05-07 04:00:00,15.23322167,0.0001365,53.2174,215.8736,58.1811,28.4674,-0.030874,-0.00694215,0.0,0 STARLINK-3651,1 51985U 22025AF  22127.16667824 -.00694215  00000-0 -30874-1 0  9995,2 51985  53.2174 215.8736 0001365  58.1811  28.4674 15.23322167 10401,6873.965,94.53,496.769,494.892,0.0
51985.0,STARLINK-3651,PAYLOAD,2022-05-07 14:00:01,15.22712088,0.0001673,53.2175,213.9599,53.2077,159.2252,-0.03143,-0.00694037,0.0,0 STARLINK-3651,1 51985U 22025AF  22127.58334491 -.00694037  00000-0 -31430-1 0  9993,2 51985  53.2175 213.9599 0001673  53.2077 159.2252 15.22712088  3669,6875.801,94.568,498.817,496.516,0.0
51985.0,STARLINK-3651,PAYLOAD,2022-05-07 22:00:00,15.22225738,0.000145,53.2174,212.4274,65.6746,174.7271,-0.032061,-0.00697553,0.0,0 STARLINK-3651,1 51985U 22025AF  22127.91667824 -.00697553  00000-0 -32061-1 0  9996,2 51985  53.2174 212.4274 0001450  65.6746 174.7271 15.22225738  3658,6877.266,94.598,500.128,498.133,0.0
51985.0,STARLINK-3651,PAYLOAD,2022-05-08 04:00:00,15.21858872,0.0001535,53.2173,211.2789,58.0072,112.9866,-0.032363,-0.0069658999999999,0.0,0 STARLINK-3651,1 51985U 22025AF  22128.16667824 -.00696590  00000-0 -32363-1 0  9999,2 51985  53.2173 211.2789 0001535  58.0072 112.9866 15.21858872 10569,6878.371,94.621,501.292,499.18,0.0
51985.0,STARLINK-3651,PAYLOAD,2022-05-08 14:00:01,15.21247399,0.0001463,53.2175,209.3695,61.1182,233.4604,-0.032826,-0.00694075,0.0,0 STARLINK-3651,1 51985U 22025AF  22128.58334491 -.00694075  00000-0 -32826-1 0  9996,2 51985  53.2175 209.3695 0001463  61.1182 233.4604 15.21247399  3648,6880.214,94.659,503.086,501.072,0.0
51985.0,STARLINK-3651,PAYLOAD,2022-05-08 22:00:00,15.20760903,0.0001318,53.2174,207.8402,66.4147,254.3728,-0.033487,-0.00697716,0.0,0 STARLINK-3651,1 51985U 22025AF  22128.91667824 -.00697716  00000-0 -33487-1 0  9991,2 51985  53.2174 207.8402 0001318  66.4147 254.3728 15.20760903  3654,6881.681,94.689,504.453,502.639,0.0
51985.0,STARLINK-3651,PAYLOAD,2022-05-09 12:00:00,15.19904608,0.0001458,53.2174,205.1705,62.4612,212.7792,-0.034155,-0.0069424,0.0,0 STARLINK-3651,1 51985U 22025AF  22129.50001157 -.00694240  00000-0 -34155-1 0  9990,2 51985  53.2174 205.1705 0001458  62.4612 212.7792 15.19904608 10768,6884.266,94.743,507.134,505.127,0.0
51985.0,STARLINK-3651,PAYLOAD,2022-05-09 14:00:01,15.19783305,0.0001393,53.2175,204.7893,57.9202,313.587,-0.0343529999999999,-0.00695686,0.0,0 STARLINK-3651,1 51985U 22025AF  22129.58335648 -.00695686  00000-0 -34353-1 0  9998,2 51985  53.2175 204.7893 0001393  57.9202 313.5870 15.19783305  3650,6884.632,94.75,507.456,505.538,0.0
51985.0,STARLINK-3651,PAYLOAD,2022-05-09 22:00:00,15.192951,0.0001303,53.2175,203.2634,61.4236,334.4696,-0.034867,-0.00696067,0.0,0 STARLINK-3651,1 51985U 22025AF  22129.91667824 -.00696067  00000-0 -34867-1 0  9993,2 51985  53.2175 203.2634 0001303  61.4236 334.4696 15.19295100  3643,6886.107,94.781,508.869,507.074,0.0
51985.0,STARLINK-3651,PAYLOAD,2022-05-10 12:00:00,15.18440857,0.0001399,53.2174,200.5997,60.8846,286.3804,-0.035744,-0.00696077,0.0,0 STARLINK-3651,1 51985U 22025AF  22130.50001157 -.00696077  00000-0 -35744-1 0  9997,2 51985  53.2174 200.5997 0001399  60.8846 286.3804 15.18440857 10913,6888.689,94.834,511.518,509.59,0.0
51985.0,STARLINK-3651,PAYLOAD,2022-05-10 14:00:01,15.18317535,0.0001463,53.2175,200.2194,55.3974,27.6318,-0.035777,-0.00694358,0.0,0 STARLINK-3651,1 51985U 22025AF  22130.58334491 -.00694358  00000-0 -35777-1 0  9991,2 51985  53.2175 200.2194 0001463  55.3974  27.6318 15.18317535  3658,6889.062,94.842,511.935,509.919,0.0
51985.0,STARLINK-3651,PAYLOAD,2022-05-10 18:00:00,15.18074098,0.000145,53.2167,199.4595,61.3141,213.1313,-0.036039,-0.00694516,0.0,0 STARLINK-3651,1 51985U 22025AF  22130.75001157 -.00694516  00000-0 -36039-1 0  9998,2 51985  53.2167 199.4595 0001450  61.3141 213.1313 15.18074098  3631,6889.799,94.857,512.663,510.665,0.0
51985.0,STARLINK-3651,PAYLOAD,2022-05-11 20:00:01,15.16487062,0.0001426,53.2173,194.5202,55.6842,19.4012,-0.037745,-0.00694847,0.0,0 STARLINK-3651,1 51985U 22025AF  22131.83334491 -.00694847  00000-0 -37745-1 0  9990,2 51985  53.2173 194.5202 0001426  55.6842  19.4012 15.16487062 11118,6894.605,94.956,517.453,515.486,0.0
51985.0,STARLINK-3651,PAYLOAD,2022-05-11 22:00:00,15.16364365,0.0001508,53.2174,194.1404,59.7909,110.472,-0.037795,-0.0069343,0.0,0 STARLINK-3651,1 51985U 22025AF  22131.91667824 -.00693430  00000-0 -37795-1 0  9990,2 51985  53.2174 194.1404 0001508  59.7909 110.4720 15.16364365  1307,6894.977,94.964,517.881,515.802,0.0
51985.0,STARLINK-3651,PAYLOAD,2022-05-12 14:00:01,15.15384851,0.0001612,53.2175,191.1103,56.2189,154.1402,-0.038578,-0.00688592,0.0,0 STARLINK-3651,1 51985U 22025AF  22132.58334491 -.00688592  00000-0 -38578-1 0  9998,2 51985  53.2175 191.1103 0001612  56.2189 154.1402 15.15384851  1302,6897.946999999999,95.025,520.924,518.7,0.0
51985.0,STARLINK-3651,PAYLOAD,2022-05-12 22:00:00,15.14899444,0.0001463,53.2175,189.5943,66.4553,163.0716,-0.039387,-0.00693056,0.0,0 STARLINK-3651,1 51985U 22025AF  22132.91667824 -.00693056  00000-0 -39387-1 0  9994,2 51985  53.2175 189.5943 0001463  66.4553 163.0716 15.14899444  1302,6899.420999999999,95.056,522.295,520.276,0.0
51985.0,STARLINK-3651,PAYLOAD,2022-05-13 04:00:00,15.14533835,0.0001663,53.2176,188.4592,52.1798,101.3377,-0.039835,-0.00693674,0.0,0 STARLINK-3651,1 51985U 22025AF  22133.16667824 -.00693674  00000-0 -39835-1 0  9996,2 51985  53.2176 188.4592 0001663  52.1798 101.3377 15.14533835 11326,6900.531,95.079,523.544,521.249,0.0
51985.0,STARLINK-3651,PAYLOAD,2022-05-13 14:00:01,15.13920055,0.0001469,53.2175,186.5711,63.6326,202.4701,-0.040193,-0.0068819999999999,0.0,0 STARLINK-3651,1 51985U 22025AF  22133.58334491 -.00688200  00000-0 -40193-1 0  9991,2 51985  53.2175 186.5711 0001469  63.6326 202.4701 15.13920055  1309,6902.396,95.117,525.275,523.247,0.0
51985.0,STARLINK-3651,PAYLOAD,2022-05-13 22:00:00,15.13434258,0.0001411,53.2175,185.0585,63.2044,220.3063,-0.04102,-0.00692484,0.0,0 STARLINK-3651,1 51985U 22025AF  22133.91667824 -.00692484  00000-0 -41020-1 0  9996,2 51985  53.2175 185.0585 0001411  63.2044 220.3063 15.13434258  1307,6903.873000000001,95.148,526.712,524.764,0.0
51985.0,STARLINK-3651,PAYLOAD,2022-05-14 04:00:00,15.13068934,0.0001679,53.2175,183.9261,53.2285,152.9525,-0.041507,-0.00693487,0.0,0 STARLINK-3651,1 51985U 22025AF  22134.16667824 -.00693487  00000-0 -41507-1 0  9998,2 51985  53.2175 183.9261 0001679  53.2285 152.9525 15.13068934 11473,6904.984,95.171,528.009,525.69,0.0
51985.0,STARLINK-3651,PAYLOAD,2022-05-14 14:00:01,15.12455805,0.0001326,53.2174,182.042,69.2388,247.327,-0.041934,-0.0068893,0.0,0 STARLINK-3651,1 51985U 22025AF  22134.58334491 -.00688930  00000-0 -41934-1 0  9996,2 51985  53.2174 182.0420 0001326  69.2388 247.3270 15.12455805  1302,6906.85,95.209,529.631,527.799,0.0
51985.0,STARLINK-3651,PAYLOAD,2022-05-14 22:00:00,15.11968793,0.0001492,53.2175,180.5328,51.3566,280.8576,-0.042683,-0.00691564,0.0,0 STARLINK-3651,1 51985U 22025AF  22134.91667824 -.00691564  00000-0 -42683-1 0  9991,2 51985  53.2175 180.5328 0001492  51.3566 280.8576 15.11968793  1302,6908.333000000001,95.24,531.229,529.168,0.0
